ONEWEB-0144             
1 47290U 20100AJ  25296.65035557  .00000322  00000+0  86035-3 0  9996
2 47290  87.8960  37.6239 0002080 100.4703 259.6660 13.12448419233545
ONEWEB-0145             
1 47291U 20100AK  25296.54489970 -.00000327  00000+0 -94437-3 0  9999
2 47291  87.8969  37.6793 0001830 101.3287 258.8047 13.12444591233726
ONEWEB-0146             
1 47292U 20100AL  25296.61789163 -.00000332  00000+0 -95894-3 0  9999
2 47292  87.8971  37.6516 0001431 109.2591 250.8692 13.12444320233644
ONEWEB-0147             
1 47293U 20100AM  25296.66007812  .00000463  00000+0  12517-2 0  9992
2 47293  87.8969  37.6215 0001996 107.5027 252.6320 13.12441727233544
ONEWEB-0115             
1 48042U 21025A   25296.94898244  .00000239  00000+0  61989-3 0  9999
2 48042  87.9041   7.1613 0001781 100.7106 259.4224 13.13471966222587
ONEWEB-0152             
1 48043U 21025B   25296.65782838  .00000306  00000+0  80175-3 0  9992
2 48043  87.9034   7.2310 0001762 103.8894 256.2431 13.13470073222507
ONEWEB-0153             
1 48044U 21025C   25296.48346538  .00000180  00000+0  45798-3 0  9999
2 48044  87.9041   7.2676 0001845  98.4359 261.6979 13.13471494222479
ONEWEB-0154             
1 48045U 21025D   25296.48006473 -.00000181  00000+0 -52945-3 0  9996
2 48045  87.9042   7.2646 0001865 102.5706 257.5632 13.13470703222431
